NORAD_CAT_ID,OBJECT_NAME,OBJECT_TYPE,EPOCH,MEAN_MOTION,ECCENTRICITY,INCLINATION,RA_OF_ASC_NODE,ARG_OF_PERICENTER,MEAN_ANOMALY,BSTAR,MEAN_MOTION_DOT,MEAN_MOTION_DDOT,TLE_LINE0,TLE_LINE1,TLE_LINE2,SEMIMAJOR_AXIS,PERIOD,APOGEE,PERIGEE,DECAYED
56496.0,STARLINK-5526,PAYLOAD,2023-12-15 09:47:04,14.98343291,0.0002581,69.9994,359.9684,264.9892,95.0972,-0.00018548,-2.306e-05,0.0,0 STARLINK-5526,1 56496U 23064BA  23349.40769600 -.00002306  00000-0 -18548-3 0  9990,2 56496  69.9994 359.9684 0002581 264.9892  95.0972 14.98343291 34113,6950.152,96.106,573.811,570.223,0.0
56496.0,STARLINK-5526,PAYLOAD,2023-12-16 03:24:34,14.98327948,0.0002661,69.9995,358.1169,261.8672,98.2185,-2.6055e-05,-4.04e-06,0.0,0 STARLINK-5526,1 56496U 23064BA  23350.14206136 -.00000404  00000-0 -26055-4 0  9993,2 56496  69.9995 358.1169 0002661 261.8672  98.2185 14.98327948 34587,6950.199,96.107,573.914,570.215,0.0
56496.0,STARLINK-5526,PAYLOAD,2023-12-16 09:49:06,14.98338027,0.0002496,69.9995,357.4436,261.3887,98.6989,-0.00025197,-3.099e-05,0.0,0 STARLINK-5526,1 56496U 23064BA  23350.40910125 -.00003099  00000-0 -25197-3 0  9990,2 56496  69.9995 357.4436 0002496 261.3887  98.6989 14.98338027 34266,6950.168,96.106,573.768,570.298,0.0
56496.0,STARLINK-5526,PAYLOAD,2023-12-17 03:26:35,14.98328166,0.0002744,69.9994,355.592,261.46,98.6248,-3.8286e-06,-1.39e-06,0.0,0 STARLINK-5526,1 56496U 23064BA  23351.14346128 -.00000139  00000-0 -38286-5 0  9995,2 56496  69.9994 355.5920 0002744 261.4600  98.6248 14.98328166 34735,6950.199,96.107,573.971,570.156,0.0
56496.0,STARLINK-5526,PAYLOAD,2023-12-17 09:51:07,14.98328554,0.000276,69.9994,354.9186,261.4011,98.6835,-1.7948e-05,-3.07e-06,0.0,0 STARLINK-5526,1 56496U 23064BA  23351.41050172 -.00000307  00000-0 -17948-4 0  9994,2 56496  69.9994 354.9186 0002760 261.4011  98.6835 14.98328554 34414,6950.197,96.107,573.981,570.144,0.0
56496.0,STARLINK-5526,PAYLOAD,2023-12-18 03:28:35,14.98329967,0.000269,70.0004,353.0684,252.854,107.2325,8.953e-05,9.75e-06,0.0,0 STARLINK-5526,1 56496U 23064BA  23352.14485718  .00000975  00000-0  89530-4 0  9998,2 56496  70.0004 353.0684 0002690 252.8540 107.2325 14.98329967 34886,6950.193,96.107,573.928,570.188,0.0
56496.0,STARLINK-5526,PAYLOAD,2023-12-18 09:53:09,14.98311335,0.000286,69.9994,352.3936,261.6337,98.4498,-0.00013798,-1.738e-05,0.0,0 STARLINK-5526,1 56496U 23064BA  23352.41191645 -.00001738  00000-0 -13798-3 0  9993,2 56496  69.9994 352.3936 0002860 261.6337  98.4498 14.98311335 34921,6950.251,96.108,574.103,570.128,0.0
56496.0,STARLINK-5526,PAYLOAD,2023-12-19 03:30:37,14.98323451,0.0002903,69.9992,350.5408,264.7854,95.2974,-3.3721e-05,-4.95e-06,0.0,0 STARLINK-5526,1 56496U 23064BA  23353.14627152 -.00000495  00000-0 -33721-4 0  9999,2 56496  69.9992 350.5408 0002903 264.7854  95.2974 14.98323451 35038,6950.213,96.107,574.096,570.06,0.0
56496.0,STARLINK-5526,PAYLOAD,2023-12-19 09:55:10,14.98323559,0.0002511,70.0002,349.8687,264.9413,95.146,1.919e-05,1.36e-06,0.0,0 STARLINK-5526,1 56496U 23064BA  23353.41331204  .00000136  00000-0  19190-4 0  9993,2 56496  70.0002 349.8687 0002511 264.9413  95.1460 14.98323559 34713,6950.213,96.107,573.823,570.333,0.0
56496.0,STARLINK-5526,PAYLOAD,2023-12-20 03:32:37,14.98327019,0.000318,69.9989,348.0157,271.3146,88.7649,0.00024102,2.784e-05,0.0,0 STARLINK-5526,1 56496U 23064BA  23354.14766080  .00002784  00000-0  24102-3 0  9997,2 56496  69.9989 348.0157 0003180 271.3146  88.7649 14.98327019 35189,6950.202,96.107,574.277,569.857,0.0
56496.0,STARLINK-5526,PAYLOAD,2023-12-20 09:57:09,14.98333652,0.0002952,69.9993,347.3429,267.5126,92.5695,0.00030403,3.537e-05,0.0,0 STARLINK-5526,1 56496U 23064BA  23354.41469482  .00003537  00000-0  30403-3 0  9991,2 56496  69.9993 347.3429 0002952 267.5126  92.5695 14.98333652 35228,6950.182,96.107,574.098,569.995,0.0
56496.0,STARLINK-5526,PAYLOAD,2023-12-21 03:34:37,14.9839371,0.0001928,70.0006,345.493,242.5651,117.5312,-0.00087624,-0.00010549,0.0,0 STARLINK-5526,1 56496U 23064BA  23355.14905069 -.00010549  00000-0 -87624-3 0  9998,2 56496  70.0006 345.4930 0001928 242.5651 117.5312 14.98393710 35337,6949.996,96.103,573.201,570.521,0.0
56496.0,STARLINK-5526,PAYLOAD,2023-12-21 09:59:09,14.98388996,0.0002064,69.9998,344.818,255.24,104.8531,-0.0008193,-9.869e-05,0.0,0 STARLINK-5526,1 56496U 23064BA  23355.41608363 -.00009869  00000-0 -81930-3 0  9992,2 56496  69.9998 344.8180 0002064 255.2400 104.8531 14.98388996 35016,6950.01,96.103,573.31,570.441,0.0
56496.0,STARLINK-5526,PAYLOAD,2023-12-22 03:36:39,14.98333428,0.0002615,70.0012,342.9702,247.1421,112.9462,-0.00011965,-1.52e-05,0.0,0 STARLINK-5526,1 56496U 23064BA  23356.15046104 -.00001520  00000-0 -11965-3 0  9990,2 56496  70.0012 342.9702 0002615 247.1421 112.9462 14.98333428 35484,6950.182,96.107,573.865,570.23,0.0
56496.0,STARLINK-5526,PAYLOAD,2023-12-22 08:25:04,14.98331083,0.00027,70.0001,342.4627,255.0012,105.0849,-0.00014636,-1.839e-05,0.0,0 STARLINK-5526,1 56496U 23064BA  23356.35074279 -.00001839  00000-0 -14636-3 0  9997,2 56496  70.0001 342.4627 0002700 255.0012 105.0849 14.98331083 35153,6950.19,96.107,573.931,570.178,0.0
56496.0,STARLINK-5526,PAYLOAD,2023-12-23 03:38:40,14.98332368,0.0002849,69.9995,340.4415,263.446,96.6375,-3.7802e-05,-5.44e-06,0.0,0 STARLINK-5526,1 56496U 23064BA  23357.15185811 -.00000544  00000-0 -37802-4 0  9994,2 56496  69.9995 340.4415 0002849 263.4460  96.6375 14.98332368 35638,6950.186,96.107,574.031,570.07,0.0
56496.0,STARLINK-5526,PAYLOAD,2023-12-23 08:27:04,14.98335308,0.0002695,69.9995,339.9356,266.0221,94.063,4.7386e-05,4.73e-06,0.0,0 STARLINK-5526,1 56496U 23064BA  23357.35213396  .00000473  00000-0  47386-4 0  9993,2 56496  69.9995 339.9356 0002695 266.0221  94.0630 14.98335308 35305,6950.176,96.107,573.915,570.168,0.0
56496.0,STARLINK-5526,PAYLOAD,2023-12-24 03:40:41,14.98328326,0.0002922,69.9993,337.9165,263.5379,96.5447,7.0889e-05,7.53e-06,0.0,0 STARLINK-5526,1 56496U 23064BA  23358.15325824  .00000753  00000-0  70889-4 0  9997,2 56496  69.9993 337.9165 0002922 263.5379  96.5447 14.98328326 35785,6950.198,96.107,574.094,570.032,0.0
56496.0,STARLINK-5526,PAYLOAD,2023-12-24 08:29:05,14.98328299,0.0002747,69.9998,337.4114,263.8348,96.2498,8.31e-05,8.99e-06,0.0,0 STARLINK-5526,1 56496U 23064BA  23358.35353811  .00000899  00000-0  83100-4 0  9997,2 56496  69.9998 337.4114 0002747 263.8348  96.2498 14.98328299 35459,6950.198,96.107,573.972,570.154,0.0
56496.0,STARLINK-5526,PAYLOAD,2023-12-25 03:42:42,14.98330444,0.0002772,69.9998,335.3917,261.4596,98.6249,-5.9063e-06,-1.63e-06,0.0,0 STARLINK-5526,1 56496U 23064BA  23359.15465873 -.00000163  00000-0 -59063-5 0  9996,2 56496  69.9998 335.3917 0002772 261.4596  98.6249 14.98330444 35932,6950.192,96.107,573.983,570.13,0.0
56496.0,STARLINK-5526,PAYLOAD,2023-12-25 08:31:06,14.98333325,0.000271,69.9998,334.8865,262.8017,97.2834,4.658e-05,4.63e-06,0.0,0 STARLINK-5526,1 56496U 23064BA  23359.35493529  .00000463  00000-0  46580-4 0  9997,2 56496  69.9998 334.8865 0002710 262.8017  97.2834 14.98333325 35603,6950.183,96.107,573.931,570.164,0.0
56496.0,STARLINK-5526,PAYLOAD,2023-12-26 03:44:43,14.98329698,0.0002651,70.0001,332.8667,255.7336,104.3529,-1.3968e-05,-2.6e-06,0.0,0 STARLINK-5526,1 56496U 23064BA  23360.15605865 -.00000260  00000-0 -13968-4 0  9996,2 56496  70.0001 332.8667 0002651 255.7336 104.3529 14.98329698 36080,6950.194,96.107,573.901,570.216,0.0
56496.0,STARLINK-5526,PAYLOAD,2023-12-26 08:33:07,14.98330982,0.0002632,70.0001,332.3615,254.1323,105.9546,-5.3685e-06,-1.57e-06,0.0,0 STARLINK-5526,1 56496U 23064BA  23360.35633768 -.00000157  00000-0 -53685-5 0  9997,2 56496  70.0001 332.3615 0002632 254.1323 105.9546 14.98330982 35753,6950.19,96.107,573.884,570.226,0.0
56496.0,STARLINK-5526,PAYLOAD,2023-12-26 22:58:20,14.98344967,0.0002505,70.0001,330.8465,256.5312,103.5568,-0.00022441,-2.77e-05,0.0,0 STARLINK-5526,1 56496U 23064BA  23360.95717616 -.00002770  00000-0 -22441-3 0  9995,2 56496  70.0001 330.8465 0002505 256.5312 103.5568 14.98344967 35848,6950.147,96.106,573.753,570.271,0.0
56496.0,STARLINK-5526,PAYLOAD,2023-12-27 03:46:44,14.98329476,0.0002596,70.0002,330.3415,260.4881,99.5985,3.8994e-05,3.72e-06,0.0,0 STARLINK-5526,1 56496U 23064BA  23361.15745690  .00000372  00000-0  38994-4 0  9996,2 56496  70.0002 330.3415 0002596 260.4881  99.5985 14.98329476 36233,6950.195,96.107,573.864,570.255,0.0
56496.0,STARLINK-5526,PAYLOAD,2023-12-27 08:35:08,14.98332199,0.0002581,70.0003,329.8366,260.3095,99.7772,5.4895e-05,5.62e-06,0.0,0 STARLINK-5526,1 56496U 23064BA  23361.35773464  .00000562  00000-0  54895-4 0  9997,2 56496  70.0003 329.8366 0002581 260.3095  99.7772 14.98332199 35907,6950.186,96.107,573.845,570.257,0.0
56496.0,STARLINK-5526,PAYLOAD,2023-12-27 21:24:12,14.98330705,0.0002507,70.0003,328.4911,258.5698,101.5179,5.2364e-05,5.32e-06,0.0,0 STARLINK-5526,1 56496U 23064BA  23361.89181460  .00000532  00000-0  52364-4 0  9991,2 56496  70.0003 328.4911 0002507 258.5698 101.5179 14.98330705 35986,6950.191,96.107,573.798,570.313,0.0
56496.0,STARLINK-5526,PAYLOAD,2023-12-28 03:48:45,14.98324178,0.0002402,70.001,327.8176,255.5407,104.5486,1.5895e-06,-7.4e-07,0.0,0 STARLINK-5526,1 56496U 23064BA  23362.15886062 -.00000074  00000-0  15895-5 0  9992,2 56496  70.0010 327.8176 0002402 255.5407 104.5486 14.98324178 36385,6950.211,96.107,573.745,570.406,0.0
56496.0,STARLINK-5526,PAYLOAD,2023-12-28 08:37:10,14.98314123,0.0002035,70.0012,327.3113,280.374,79.7189,-5.4178e-05,-7.39e-06,0.0,0 STARLINK-5526,1 56496U 23064BA  23362.35915176 -.00000739  00000-0 -54178-4 0  9998,2 56496  70.0012 327.3113 0002035 280.3740  79.7189 14.98314123 36417,6950.242,96.108,573.521,570.693,0.0
56496.0,STARLINK-5526,PAYLOAD,2023-12-29 03:50:47,14.98318422,0.0002463,70.0015,325.2935,248.3653,111.7243,-9.609e-05,-1.239e-05,0.0,0 STARLINK-5526,1 56496U 23064BA  23363.16027159 -.00001239  00000-0 -96090-4 0  9998,2 56496  70.0015 325.2935 0002463 248.3653 111.7243 14.98318422 36538,6950.229,96.108,573.806,570.382,0.0
